{
  "norad_id": 54645,
  "name": "ONEWEB-0540",
  "history": [
    {
      "epoch": "2026-03-28T18:09:31.635360Z",
      "apogee_km": 1178.9763316107856,
      "perigee_km": 1176.5297344180954,
      "latitude_deg": -2.7907861027509524e-05,
      "longitude_deg": 161.47729421238824,
      "height_km": 1180.841622049736,
      "semi_major_axis_km": 7555.890033014441,
      "eccentricity": 0.0001619,
      "inclination_deg": 87.9172,
      "raan_deg": 260.0316,
      "arg_perigee_deg": 98.77,
      "mean_anomaly_deg": 261.3617,
      "mean_motion_rev_day": 13.21826088
    },
    {
      "epoch": "2026-03-28T23:36:32.214816Z",
      "apogee_km": 1178.9763707719057,
      "perigee_km": 1176.5343063680803,
      "latitude_deg": 1.976737551090054e-05,
      "longitude_deg": 79.45565129175597,
      "height_km": 1180.8492920746194,
      "semi_major_axis_km": 7555.892338569993,
      "eccentricity": 0.0001616,
      "inclination_deg": 87.9172,
      "raan_deg": 259.9862,
      "arg_perigee_deg": 99.0412,
      "mean_anomaly_deg": 261.0905,
      "mean_motion_rev_day": 13.21825483
    },
    {
      "epoch": "2026-03-30T04:40:34.942368Z",
      "apogee_km": 1178.9922334932344,
      "perigee_km": 1176.5148081092739,
      "latitude_deg": -2.2162029614387977e-05,
      "longitude_deg": 2.008529003080978,
      "height_km": 1180.8597022700624,
      "semi_major_axis_km": 7555.890520801254,
      "eccentricity": 0.00016394,
      "inclination_deg": 87.9173,
      "raan_deg": 259.7442,
      "arg_perigee_deg": 99.4853,
      "mean_anomaly_deg": 260.6466,
      "mean_motion_rev_day": 13.2182596
    },
    {
      "epoch": "2026-03-30T11:56:35.651040Z",
      "apogee_km": 1178.9950376763927,
      "perigee_km": 1176.5130785816182,
      "latitude_deg": 4.6541219868182065e-05,
      "longitude_deg": -107.35346044145837,
      "height_km": 1180.8615002286626,
      "semi_major_axis_km": 7555.891058129006,
      "eccentricity": 0.00016424,
      "inclination_deg": 87.9174,
      "raan_deg": 259.6836,
      "arg_perigee_deg": 99.5275,
      "mean_anomaly_deg": 260.6045,
      "mean_motion_rev_day": 13.21825819
    },
    {
      "epoch": "2026-03-30T21:01:36.482880Z",
      "apogee_km": 1179.0006514830393,
      "perigee_km": 1176.5056965475787,
      "latitude_deg": 6.148041675241451e-05,
      "longitude_deg": 115.94452580215072,
      "height_km": 1180.8664225129428,
      "semi_major_axis_km": 7555.890174015309,
      "eccentricity": 0.0001651,
      "inclination_deg": 87.9175,
      "raan_deg": 259.6081,
      "arg_perigee_deg": 99.7485,
      "mean_anomaly_deg": 260.3836,
      "mean_motion_rev_day": 13.21826051
    },
    {
      "epoch": "2026-03-31T20:38:38.729472Z",
      "apogee_km": 1179.020759045824,
      "perigee_km": 1176.4910461020418,
      "latitude_deg": 1.3622219411580133e-05,
      "longitude_deg": 120.518636956528,
      "height_km": 1180.8767262597175,
      "semi_major_axis_km": 7555.892902573933,
      "eccentricity": 0.0001674,
      "inclination_deg": 87.9174,
      "raan_deg": 259.4115,
      "arg_perigee_deg": 99.9629,
      "mean_anomaly_deg": 260.1694,
      "mean_motion_rev_day": 13.21825335
    },
    {
      "epoch": "2026-04-01T16:37:40.580256Z",
      "apogee_km": 1179.0094290179404,
      "perigee_km": 1176.5023837516019,
      "latitude_deg": -5.034751208837679e-06,
      "longitude_deg": 179.77381828031304,
      "height_km": 1180.8793352625382,
      "semi_major_axis_km": 7555.892906384771,
      "eccentricity": 0.0001659,
      "inclination_deg": 87.9175,
      "raan_deg": 259.2451,
      "arg_perigee_deg": 100.1734,
      "mean_anomaly_deg": 259.9587,
      "mean_motion_rev_day": 13.21825334
    },
    {
      "epoch": "2026-04-02T18:03:46.169280Z",
      "apogee_km": 1179.0630876363148,
      "perigee_km": 1176.6633019744459,
      "latitude_deg": 4.841457867449862e-05,
      "longitude_deg": 156.99415987468336,
      "height_km": 1180.9579231486198,
      "semi_major_axis_km": 7556.0001948053805,
      "eccentricity": 0.0001588,
      "inclination_deg": 87.9168,
      "raan_deg": 259.0333,
      "arg_perigee_deg": 99.2393,
      "mean_anomaly_deg": 260.8921,
      "mean_motion_rev_day": 13.21797181
    },
    {
      "epoch": "2026-04-02T21:41:47.221728Z",
      "apogee_km": 1179.213338031771,
      "perigee_km": 1176.5496903851417,
      "latitude_deg": -6.1304914383439924e-06,
      "longitude_deg": 102.31024510234839,
      "height_km": 1181.0055082388487,
      "semi_major_axis_km": 7556.0185142084565,
      "eccentricity": 0.00017626,
      "inclination_deg": 87.9173,
      "raan_deg": 259.003,
      "arg_perigee_deg": 99.6043,
      "mean_anomaly_deg": 260.529,
      "mean_motion_rev_day": 13.21792374
    },
    {
      "epoch": "2026-04-03T17:40:50.974176Z",
      "apogee_km": 1179.2570343627458,
      "perigee_km": 1176.5247746724717,
      "latitude_deg": 3.954145916746681e-05,
      "longitude_deg": 161.55728242051072,
      "height_km": 1181.003510829864,
      "semi_major_axis_km": 7556.0279045176085,
      "eccentricity": 0.0001808,
      "inclination_deg": 87.9175,
      "raan_deg": 258.8364,
      "arg_perigee_deg": 98.8813,
      "mean_anomaly_deg": 261.2526,
      "mean_motion_rev_day": 13.2178991
    },
    {
      "epoch": "2026-04-04T04:34:54.763104Z",
      "apogee_km": 1179.9954439425064,
      "perigee_km": 1176.4140402104313,
      "latitude_deg": -1.1521030986218772e-05,
      "longitude_deg": -2.496997145561195,
      "height_km": 1181.8029242710963,
      "semi_major_axis_km": 7556.341742076469,
      "eccentricity": 0.00023698,
      "inclination_deg": 87.9169,
      "raan_deg": 258.7456,
      "arg_perigee_deg": 112.9146,
      "mean_anomaly_deg": 247.2238,
      "mean_motion_rev_day": 13.21707564
    },
    {
      "epoch": "2026-04-05T11:28:01.164864Z",
      "apogee_km": 1179.295273761505,
      "perigee_km": 1176.642476110932,
      "latitude_deg": 4.043773771486028e-05,
      "longitude_deg": -107.2989773533436,
      "height_km": 1181.1156944882484,
      "semi_major_axis_km": 7556.105874936218,
      "eccentricity": 0.00017554,
      "inclination_deg": 87.918,
      "raan_deg": 258.4887,
      "arg_perigee_deg": 100.646,
      "mean_anomaly_deg": 259.4872,
      "mean_motion_rev_day": 13.21769451
    },
    {
      "epoch": "2026-04-05T20:33:03.461184Z",
      "apogee_km": 1179.298421175774,
      "perigee_km": 1176.6462268030527,
      "latitude_deg": -5.449470003398263e-05,
      "longitude_deg": 115.99278509440015,
      "height_km": 1181.1194604573134,
      "semi_major_axis_km": 7556.109323989413,
      "eccentricity": 0.0001755,
      "inclination_deg": 87.9182,
      "raan_deg": 258.4131,
      "arg_perigee_deg": 100.6617,
      "mean_anomaly_deg": 259.4714,
      "mean_motion_rev_day": 13.21768546
    },
    {
      "epoch": "2026-04-06T00:11:04.367616Z",
      "apogee_km": 1179.2978942715972,
      "perigee_km": 1176.6472110405239,
      "latitude_deg": -4.6007124196832304e-05,
      "longitude_deg": 61.309482286441096,
      "height_km": 1181.1185457173524,
      "semi_major_axis_km": 7556.10955265606,
      "eccentricity": 0.0001754,
      "inclination_deg": 87.9181,
      "raan_deg": 258.3828,
      "arg_perigee_deg": 100.6176,
      "mean_anomaly_deg": 259.5155,
      "mean_motion_rev_day": 13.21768486
    },
    {
      "epoch": "2026-04-07T10:42:12.948480Z",
      "apogee_km": 1179.30020124582,
      "perigee_km": 1176.6454376218608,
      "latitude_deg": 4.213212068595713e-05,
      "longitude_deg": -98.18101891527978,
      "height_km": 1181.1255235555577,
      "semi_major_axis_km": 7556.10981943384,
      "eccentricity": 0.00017567,
      "inclination_deg": 87.9183,
      "raan_deg": 258.0957,
      "arg_perigee_deg": 100.8965,
      "mean_anomaly_deg": 259.2367,
      "mean_motion_rev_day": 13.21768416
    },
    {
      "epoch": "2026-04-07T16:09:14.315904Z",
      "apogee_km": 1179.3056400924916,
      "perigee_km": 1176.6413555309637,
      "latitude_deg": 7.558764804679894e-05,
      "longitude_deg": 179.79414488234545,
      "height_km": 1181.1285279260726,
      "semi_major_axis_km": 7556.110497811727,
      "eccentricity": 0.0001763,
      "inclination_deg": 87.9184,
      "raan_deg": 258.0504,
      "arg_perigee_deg": 100.9596,
      "mean_anomaly_deg": 259.1737,
      "mean_motion_rev_day": 13.21768238
    },
    {
      "epoch": "2026-04-07T21:36:15.667776Z",
      "apogee_km": 1179.3064537580512,
      "perigee_km": 1176.6391469985165,
      "latitude_deg": -4.144130883484376e-05,
      "longitude_deg": 97.76926821551146,
      "height_km": 1181.1302168998752,
      "semi_major_axis_km": 7556.109800378284,
      "eccentricity": 0.0001765,
      "inclination_deg": 87.9183,
      "raan_deg": 258.005,
      "arg_perigee_deg": 101.0508,
      "mean_anomaly_deg": 259.0824,
      "mean_motion_rev_day": 13.21768421
    },
    {
      "epoch": "2026-04-09T20:50:23.909856Z",
      "apogee_km": 1179.2626557466474,
      "perigee_km": 1176.4669350823433,
      "latitude_deg": 1.7086643213993737e-05,
      "longitude_deg": 106.90222432821402,
      "height_km": 1181.0398902144736,
      "semi_major_axis_km": 7556.001795414495,
      "eccentricity": 0.000185,
      "inclination_deg": 87.9197,
      "raan_deg": 257.6122,
      "arg_perigee_deg": 101.2793,
      "mean_anomaly_deg": 258.8549,
      "mean_motion_rev_day": 13.21796761
    },
    {
      "epoch": "2026-04-10T04:06:24.901056Z",
      "apogee_km": 1179.201311060925,
      "perigee_km": 1176.507449014115,
      "latitude_deg": 9.163112955121816e-05,
      "longitude_deg": -2.4611464719073477,
      "height_km": 1180.9900764950412,
      "semi_major_axis_km": 7555.99138003752,
      "eccentricity": 0.00017826,
      "inclination_deg": 87.9195,
      "raan_deg": 257.5514,
      "arg_perigee_deg": 100.0014,
      "mean_anomaly_deg": 260.1322,
      "mean_motion_rev_day": 13.21799494
    }
  ]
}